OBJECT_NAME,OBJECT_ID,EPOCH,MEAN_MOTION,ECCENTRICITY,INCLINATION,RA_OF_ASC_NODE,ARG_OF_PERICENTER,MEAN_ANOMALY,EPHEMERIS_TYPE,CLASSIFICATION_TYPE,NORAD_CAT_ID,ELEMENT_SET_NO,REV_AT_EPOCH,BSTAR,MEAN_MOTION_DOT,MEAN_MOTION_DDOT
STARLINK-37247,2026-154S,2026-07-14T14:00:01.999872,15.88286916,.00013165,53.1591,295.9320,72.1047,87.6999,0,U,69835,999,267,-.68668999E-2,-.1685584E-1,0
STARLINK-37569,2026-154T,2026-07-14T14:00:01.999872,15.88425288,.00013417,53.1591,295.9253,68.6615,94.3512,0,U,69836,999,257,-.67862909E-2,-.1678592E-1,0
STARLINK-37587,2026-154U,2026-07-14T14:00:01.999872,15.88512644,.00012191,53.1591,295.9174,62.7476,104.0267,0,U,69837,999,254,-.67746537E-2,-.1682426E-1,0
STARLINK-37590,2026-154V,2026-07-14T14:00:01.999872,15.88536773,.00016224,53.1590,295.9103,82.9986,87.2081,0,U,69838,999,241,-.62849089E-2,-.1577779E-1,0
STARLINK-37589,2026-154W,2026-07-14T14:00:01.999872,15.88747247,.00010878,53.1588,295.9033,60.0017,113.6438,0,U,69839,999,254,-.66972345E-2,-.1682903E-1,0
STARLINK-37487,2026-154X,2026-07-14T14:00:01.999872,15.96139812,.00008895,53.1579,295.6249,64.7608,242.1713,0,U,69840,999,254,-.36437975E-2,-.1536785E-1,.69721309E-3
STARLINK-37433,2026-154Y,2026-07-14T14:00:01.999872,15.96207797,.00010149,53.1579,295.6122,71.4920,241.5157,0,U,69841,999,267,-.36884671E-2,-.1561093E-1,.7180848E-3
STARLINK-37588,2026-154Z,2026-07-14T14:00:01.999872,15.96281554,.00008602,53.1579,295.5987,67.6765,251.8431,0,U,69842,999,257,-.37521393E-2,-.1593971E-1,.74667242E-3
STARLINK-37579,2026-154AA,2026-07-14T14:00:01.999872,15.96353445,.00008417,53.1579,295.5803,63.4584,264.7785,0,U,69843,999,257,-.39040918E-2,-.1664069E-1,.80882356E-3
STARLINK-37584,2026-154AB,2026-07-14T14:00:01.999872,15.96451071,.00008392,53.1580,295.5690,65.5347,268.0307,0,U,69844,999,257,-.41080675E-2,-.1759043E-1,.89707007E-3
STARLINK-37606,2026-154AC,2026-07-14T14:00:01.999872,15.96531546,.0000875,53.1577,295.5555,69.1859,270.8116,0,U,69845,999,257,-.43934425E-2,-.1887738E-1,.10237159E-2
STARLINK-37603,2026-154AD,2026-07-14T14:00:01.999872,15.96526700,.00008494,53.1578,295.5391,68.9184,278.8247,0,U,69846,999,257,-.4535963E-2,-.1947646E-1,.10852113E-2
STARLINK-37595,2026-154AE,2026-07-14T14:00:01.999872,15.96559691,.00008076,53.1576,295.5276,63.2384,289.8592,0,U,69847,999,257,-.45906783E-2,-.1974346E-1,.1113657E-2
QIANFAN-219,2026-155A,2026-07-14T12:29:43.046304,14.21718496,.0029353,89.0062,61.0231,228.9843,130.8809,0,U,69848,999,128,-.84455663E+0,-.1722138E-1,0
QIANFAN-220,2026-155B,2026-07-14T12:36:07.810560,14.18432923,.00353399,89.0053,61.0234,221.7370,138.1123,0,U,69849,999,128,-.10562599E+1,-.2028585E-1,0
QIANFAN-221,2026-155C,2026-07-14T10:50:40.064640,14.26646016,.0030197,89.0067,61.0313,226.3515,133.5175,0,U,69850,999,127,.25030923E-4,.75E-6,0
QIANFAN-222,2026-155D,2026-07-14T12:34:51.766464,14.19113495,.00341012,89.0061,61.0243,227.0010,132.8321,0,U,69851,999,128,-.10077357E+1,-.196422E-1,0
QIANFAN-223,2026-155E,2026-07-14T14:14:01.927104,14.20529596,.00301938,89.0049,61.0154,225.2731,134.6001,0,U,69852,999,129,-.10274718E+1,-.2047514E-1,0
QIANFAN-224,2026-155F,2026-07-14T12:32:03.451488,14.19680058,.00341819,89.0054,61.0235,229.2006,130.6218,0,U,69853,999,128,-.94633388E+0,-.1870987E-1,0
QIANFAN-225,2026-155G,2026-07-14T14:10:45.707520,14.22725033,.00267178,89.0066,61.0177,228.8070,131.0818,0,U,69854,999,129,-.93052226E+0,-.1938973E-1,0
QIANFAN-226,2026-155H,2026-07-14T02:25:13.455552,14.26721637,.00302828,89.0067,61.0711,227.7238,132.1388,0,U,69855,999,122,.10599098E-3,.272E-5,0
QIANFAN-227,2026-155J,2026-07-14T00:44:10.790880,14.26727259,.00302658,89.0068,61.0791,228.0051,131.8565,0,U,69856,999,121,.10843146E-3,.278E-5,0
QIANFAN-228,2026-155K,2026-07-13T12:55:04.437984,14.21625323,.00294888,89.0064,61.1349,233.2201,126.6283,0,U,69857,999,114,-.86789429E+0,-.1763372E-1,0
QIANFAN-229,2026-155L,2026-07-14T14:12:04.962240,14.26734062,.00302694,89.0067,61.0152,225.7567,134.1142,0,U,69858,999,129,.9986893E-4,.257E-5,0
QIANFAN-230,2026-155M,2026-07-13T11:17:06.038592,14.20245376,.00323019,89.0064,61.1435,229.4484,130.3893,0,U,69859,999,113,-.96793887E+0,-.192867E-1,0
QIANFAN-231,2026-155N,2026-07-14T14:15:09.379584,14.26095388,.00304413,89.0069,61.0157,224.7373,135.1365,0,U,69860,999,129,.83127241E-4,.214E-5,0
QIANFAN-232,2026-155P,2026-07-14T14:12:03.051936,14.26735132,.00302394,89.0065,61.0151,226.1076,133.7621,0,U,69861,999,129,.86535939E-4,.225E-5,0
QIANFAN-233,2026-155Q,2026-07-14T14:11:55.615488,14.26750996,.00302036,89.0066,61.0151,225.9036,133.9672,0,U,69862,999,129,.77407058E-4,.203E-5,0
QIANFAN-234,2026-155R,2026-07-14T14:11:52.058400,14.26757629,.00301765,89.0068,61.0152,225.9060,133.9650,0,U,69863,999,129,.79327579E-4,.207E-5,0
QIANFAN-235,2026-155S,2026-07-13T12:55:16.417344,14.21365861,.00296506,89.0064,61.1353,232.4779,127.3717,0,U,69864,999,114,-.89505997E+0,-.1827141E-1,0
