STARLINK-37247          
1 69835U 26154S   26195.58335648 -.01685584  00000+0 -68669-2 0  9999
2 69835  53.1591 295.9320 0001316  72.1047  87.6999 15.88286916  2676
STARLINK-37569          
1 69836U 26154T   26195.58335648 -.01678592  00000+0 -67863-2 0  9996
2 69836  53.1591 295.9253 0001341  68.6615  94.3512 15.88425288  2573
STARLINK-37587          
1 69837U 26154U   26195.58335648 -.01682426  00000+0 -67747-2 0  9999
2 69837  53.1591 295.9174 0001219  62.7476 104.0267 15.88512644  2546
STARLINK-37590          
1 69838U 26154V   26195.58335648 -.01577779  00000+0 -62849-2 0  9992
2 69838  53.1590 295.9103 0001622  82.9986  87.2081 15.88536773  2417
STARLINK-37589          
1 69839U 26154W   26195.58335648 -.01682903  00000+0 -66972-2 0  9990
2 69839  53.1588 295.9033 0001087  60.0017 113.6438 15.88747247  2548
STARLINK-37487          
1 69840U 26154X   26195.58335648 -.01536785  69721-3 -36438-2 0  9991
2 69840  53.1579 295.6249 0000889  64.7608 242.1713 15.96139812  2548
STARLINK-37433          
1 69841U 26154Y   26195.58335648 -.01561093  71808-3 -36885-2 0  9997
2 69841  53.1579 295.6122 0001014  71.4920 241.5157 15.96207797  2679
STARLINK-37588          
1 69842U 26154Z   26195.58335648 -.01593971  74667-3 -37521-2 0  9992
2 69842  53.1579 295.5987 0000860  67.6765 251.8431 15.96281554  2571
STARLINK-37579          
1 69843U 26154AA  26195.58335648 -.01664069  80882-3 -39041-2 0  9995
2 69843  53.1579 295.5803 0000841  63.4584 264.7785 15.96353445  2575
STARLINK-37584          
1 69844U 26154AB  26195.58335648 -.01759043  89707-3 -41081-2 0  9995
2 69844  53.1580 295.5690 0000839  65.5347 268.0307 15.96451071  2570
STARLINK-37606          
1 69845U 26154AC  26195.58335648 -.01887738  10237-2 -43934-2 0  9999
2 69845  53.1577 295.5555 0000875  69.1859 270.8116 15.96531546  2570
STARLINK-37603          
1 69846U 26154AD  26195.58335648 -.01947646  10852-2 -45360-2 0  9993
2 69846  53.1578 295.5391 0000849  68.9184 278.8247 15.96526700  2578
STARLINK-37595          
1 69847U 26154AE  26195.58335648 -.01974346  11137-2 -45907-2 0  9995
2 69847  53.1576 295.5276 0000807  63.2384 289.8592 15.96559691  2573
QIANFAN-219             
1 69848U 26155A   26195.52063711 -.01722138  00000+0 -84456+0 0  9993
2 69848  89.0062  61.0231 0029353 228.9843 130.8809 14.21718496  1286
QIANFAN-220             
1 69849U 26155B   26195.52509040 -.02028585  00000+0 -10563+1 0  9999
2 69849  89.0053  61.0234 0035339 221.7370 138.1123 14.18432923  1281
QIANFAN-221             
1 69850U 26155C   26195.45185260  .00000075  00000+0  25031-4 0  9997
2 69850  89.0067  61.0313 0030197 226.3515 133.5175 14.26646016  1279
QIANFAN-222             
1 69851U 26155D   26195.52421026 -.01964220  00000+0 -10077+1 0  9993
2 69851  89.0061  61.0243 0034101 227.0010 132.8321 14.19113495  1281
QIANFAN-223             
1 69852U 26155E   26195.59307786 -.02047514  00000+0 -10275+1 0  9996
2 69852  89.0049  61.0154 0030193 225.2731 134.6001 14.20529596  1297
QIANFAN-224             
1 69853U 26155F   26195.52226217 -.01870987  00000+0 -94633+0 0  9995
2 69853  89.0054  61.0235 0034181 229.2006 130.6218 14.19680058  1288
QIANFAN-225             
1 69854U 26155G   26195.59080680 -.01938973  00000+0 -93052+0 0  9999
2 69854  89.0066  61.0177 0026717 228.8070 131.0818 14.22725033  1298
QIANFAN-226             
1 69855U 26155H   26195.10085018  .00000272  00000+0  10599-3 0  9995
2 69855  89.0067  61.0711 0030282 227.7238 132.1388 14.26721637  1227
QIANFAN-227             
1 69856U 26155J   26195.03068045  .00000278  00000+0  10843-3 0  9997
2 69856  89.0068  61.0791 0030265 228.0051 131.8565 14.26727259  1213
QIANFAN-228             
1 69857U 26155K   26194.53824581 -.01763372  00000+0 -86789+0 0  9999
2 69857  89.0064  61.1349 0029488 233.2201 126.6283 14.21625323  1145
QIANFAN-229             
1 69858U 26155L   26195.59172410  .00000257  00000+0  99869-4 0  9995
2 69858  89.0067  61.0152 0030269 225.7567 134.1142 14.26734062  1290
QIANFAN-230             
1 69859U 26155M   26194.47020878 -.01928670  00000+0 -96794+0 0  9992
2 69859  89.0064  61.1435 0032301 229.4484 130.3893 14.20245376  1134
QIANFAN-231             
1 69860U 26155N   26195.59385856  .00000214  00000+0  83127-4 0  9991
2 69860  89.0069  61.0157 0030441 224.7373 135.1365 14.26095388  1295
QIANFAN-232             
1 69861U 26155P   26195.59170199  .00000225  00000+0  86536-4 0  9993
2 69861  89.0065  61.0151 0030239 226.1076 133.7621 14.26735132  1294
QIANFAN-233             
1 69862U 26155Q   26195.59161592  .00000203  00000+0  77407-4 0  9994
2 69862  89.0066  61.0151 0030203 225.9036 133.9672 14.26750996  1293
QIANFAN-234             
1 69863U 26155R   26195.59157475  .00000207  00000+0  79328-4 0  9998
2 69863  89.0068  61.0152 0030176 225.9060 133.9650 14.26757629  1299
QIANFAN-235             
1 69864U 26155S   26194.53838446 -.01827141  00000+0 -89506+0 0  9997
2 69864  89.0064  61.1353 0029650 232.4779 127.3717 14.21365861  1148
